FENGYUN 1C DEB          
1 30355U 99025ABS 17345.60234807  .00000214  00000-0  13679-3 0  9997
2 30355  98.8286  28.4677 0056754  19.4516 111.3130 14.12676766560306
